[{"OBJECT_NAME":"STARLINK-31611","OBJECT_ID":"2024-057F","EPOCH":"2026-03-08T15:19:59.022048","MEAN_MOTION":15.27577803,"ECCENTRICITY":0.00014261,"INCLINATION":42.9971,"RA_OF_ASC_NODE":193.4134,"ARG_OF_PERICENTER":288.4796,"MEAN_ANOMALY":71.5901,"EPHEMERIS_TYPE":0,"CLASSIFICATION_TYPE":"U","NORAD_CAT_ID":59325,"ELEMENT_SET_NO":999,"REV_AT_EPOCH":10967,"BSTAR":2.489476e-6,"MEAN_MOTION_DOT":-1.94e-6,"MEAN_MOTION_DDOT":0},{"OBJECT_NAME":"BANDWAGON-4 OBJECT M","OBJECT_ID":"2025-248M","EPOCH":"2026-03-09T00:50:26.830464","MEAN_MOTION":15.24295413,"ECCENTRICITY":0.00129441,"INCLINATION":45.4108,"RA_OF_ASC_NODE":294.9904,"ARG_OF_PERICENTER":207.5285,"MEAN_ANOMALY":152.4918,"EPHEMERIS_TYPE":0,"CLASSIFICATION_TYPE":"U","NORAD_CAT_ID":66304,"ELEMENT_SET_NO":999,"REV_AT_EPOCH":1803,"BSTAR":0.00095703617,"MEAN_MOTION_DOT":0.00023645,"MEAN_MOTION_DDOT":0}]
